STARLINK-36456          
1 67357U 26003Z   26011.94089612 -.00002702  85427-5  00000+0 0  9990
2 67357  43.0100  74.1123 0008600 321.9700  11.3500 16.01646204    13
STARLINK-36466          
1 67358U 26003AA  26011.94089612 -.00002702  85427-5  00000+0 0  9991
2 67358  43.0100  74.1123 0008600 321.9700  11.3500 16.01646204    14
STARLINK-36499          
1 67359U 26003AB  26011.94089612 -.00002702  85427-5  00000+0 0  9992
2 67359  43.0100  74.1123 0008600 321.9700  11.3500 16.01646204    15
STARLINK-36469          
1 67360U 26003AC  26011.94089612 -.00002702  85427-5  00000+0 0  9994
2 67360  43.0100  74.1123 0008600 321.9700  11.3500 16.01646204    17
STARLINK-35306          
1 67361U 26003AD  26011.94089612 -.00002702  85427-5  00000+0 0  9995
2 67361  43.0100  74.1123 0008600 321.9700  11.3500 16.01646204    18
STARLINK-36428          
1 67362U 26003AE  26011.94089612 -.00002702  85427-5  00000+0 0  9996
2 67362  43.0100  74.1123 0008600 321.9700  11.3500 16.01646204    19
SHIJIAN-29B (SJ-29B)    
1 67403U 25315C   26016.72733300 -.00000052  00000+0  00000+0 0  9992
2 67403   3.0140  99.1175 0000879 327.1958  24.7781  1.00271796   160
YAOGAN-50 01            
1 67433U 26006A   26016.17880840  .00000537  00000+0  12658-3 0  9997
2 67433 141.9984 200.7842 0164962 123.7171 237.9391 14.21837795   375
CZ-6A R/B               
1 67434U 26006B   26013.71733058  .00000541  00000+0  30805-4 0  9993
2 67434 142.0438 188.1412 0201725  82.0696 280.2897 14.62247694    24
HULIANWANG DIGUI 18A    
1 67435U 26007A   26016.41566249 -.00000116  00000+0  23935-4 0  9996
2 67435  50.0089 283.4039 0008428 279.5288  80.4659 13.92120172   393
HULIANWANG DIGUI 18B    
1 67436U 26007B   26016.41588649 -.00000116  00000+0  23911-4 0  9999
2 67436  50.0068 283.4030 0007500 267.7404  92.2637 13.92012828   396
HULIANWANG DIGUI 18C    
1 67437U 26007C   26016.41579272 -.00000045  00000+0  78868-4 0  9994
2 67437  50.0037 283.4003 0008208 275.0787  84.9176 13.92052678   398
